[{"OBJECT_NAME":"STARLINK-2266","OBJECT_ID":"2021-024W","EPOCH":"2026-02-04T12:00:01.999296","MEAN_MOTION":15.16722304,"ECCENTRICITY":0.0001261,"INCLINATION":53.0958,"RA_OF_ASC_NODE":100.3748,"ARG_OF_PERICENTER":110.1182,"MEAN_ANOMALY":166.2047,"EPHEMERIS_TYPE":0,"CLASSIFICATION_TYPE":"U","NORAD_CAT_ID":47997,"ELEMENT_SET_NO":999,"REV_AT_EPOCH":582,"BSTAR":0.0041122,"MEAN_MOTION_DOT":0.00082215,"MEAN_MOTION_DDOT":0},{"OBJECT_NAME":"STARLINK-2270","OBJECT_ID":"2021-024Z","EPOCH":"2026-02-04T08:41:53.423232","MEAN_MOTION":15.06402374,"ECCENTRICITY":0.0001381,"INCLINATION":53.0552,"RA_OF_ASC_NODE":31.4321,"ARG_OF_PERICENTER":89.5947,"MEAN_ANOMALY":270.52,"EPHEMERIS_TYPE":0,"CLASSIFICATION_TYPE":"U","NORAD_CAT_ID":48000,"ELEMENT_SET_NO":999,"REV_AT_EPOCH":27081,"BSTAR":0.00026143,"MEAN_MOTION_DOT":3.615e-5,"MEAN_MOTION_DDOT":0},{"OBJECT_NAME":"STARLINK-2153","OBJECT_ID":"2021-024AJ","EPOCH":"2026-02-04T10:12:21.359808","MEAN_MOTION":15.2942128,"ECCENTRICITY":0.0001392,"INCLINATION":53.1539,"RA_OF_ASC_NODE":103.8988,"ARG_OF_PERICENTER":104.329,"MEAN_ANOMALY":255.7865,"EPHEMERIS_TYPE":0,"CLASSIFICATION_TYPE":"U","NORAD_CAT_ID":48009,"ELEMENT_SET_NO":999,"REV_AT_EPOCH":26980,"BSTAR":0.0012182,"MEAN_MOTION_DOT":0.00035033,"MEAN_MOTION_DDOT":0},{"OBJECT_NAME":"STARLINK-2226","OBJECT_ID":"2021-024AK","EPOCH":"2026-02-04T12:00:01.999296","MEAN_MOTION":15.1027089,"ECCENTRICITY":0.0001168,"INCLINATION":53.0663,"RA_OF_ASC_NODE":125.5946,"ARG_OF_PERICENTER":105.3653,"MEAN_ANOMALY":191.9022,"EPHEMERIS_TYPE":0,"CLASSIFICATION_TYPE":"U","NORAD_CAT_ID":48010,"ELEMENT_SET_NO":999,"REV_AT_EPOCH":577,"BSTAR":0.0036279,"MEAN_MOTION_DOT":0.00060279,"MEAN_MOTION_DDOT":0},{"OBJECT_NAME":"STARLINK-2285","OBJECT_ID":"2021-024AU","EPOCH":"2026-02-04T12:00:01.999296","MEAN_MOTION":15.15829731,"ECCENTRICITY":0.0001971,"INCLINATION":53.092,"RA_OF_ASC_NODE":100.4149,"ARG_OF_PERICENTER":95.1249,"MEAN_ANOMALY":137.4968,"EPHEMERIS_TYPE":0,"CLASSIFICATION_TYPE":"U","NORAD_CAT_ID":48019,"ELEMENT_SET_NO":999,"REV_AT_EPOCH":578,"BSTAR":0.0044197,"MEAN_MOTION_DOT":0.00086212,"MEAN_MOTION_DDOT":0},{"OBJECT_NAME":"STARLINK-2298","OBJECT_ID":"2021-024AX","EPOCH":"2026-02-04T11:51:40.044672","MEAN_MOTION":15.06388593,"ECCENTRICITY":0.0001574,"INCLINATION":53.0512,"RA_OF_ASC_NODE":120.9234,"ARG_OF_PERICENTER":89.9211,"MEAN_ANOMALY":270.1958,"EPHEMERIS_TYPE":0,"CLASSIFICATION_TYPE":"U","NORAD_CAT_ID":48022,"ELEMENT_SET_NO":999,"REV_AT_EPOCH":26962,"BSTAR":5.6581e-5,"MEAN_MOTION_DOT":5.61e-6,"MEAN_MOTION_DDOT":0},{"OBJECT_NAME":"STARLINK-2292","OBJECT_ID":"2021-024AY","EPOCH":"2026-02-04T11:35:41.687232","MEAN_MOTION":15.0639019,"ECCENTRICITY":0.0001405,"INCLINATION":53.0532,"RA_OF_ASC_NODE":120.692,"ARG_OF_PERICENTER":92.158,"MEAN_ANOMALY":267.9569,"EPHEMERIS_TYPE":0,"CLASSIFICATION_TYPE":"U","NORAD_CAT_ID":48023,"ELEMENT_SET_NO":999,"REV_AT_EPOCH":26962,"BSTAR":-0.00010786,"MEAN_MOTION_DOT":-1.887e-5,"MEAN_MOTION_DDOT":0},{"OBJECT_NAME":"STARLINK-2299","OBJECT_ID":"2021-024BE","EPOCH":"2026-02-04T11:03:49.764096","MEAN_MOTION":15.06382329,"ECCENTRICITY":0.0001582,"INCLINATION":53.0546,"RA_OF_ASC_NODE":120.7911,"ARG_OF_PERICENTER":107.4433,"MEAN_ANOMALY":252.6729,"EPHEMERIS_TYPE":0,"CLASSIFICATION_TYPE":"U","NORAD_CAT_ID":48029,"ELEMENT_SET_NO":999,"REV_AT_EPOCH":26962,"BSTAR":-0.00053646,"MEAN_MOTION_DOT":-8.259e-5,"MEAN_MOTION_DDOT":0},{"OBJECT_NAME":"STARLINK-2404","OBJECT_ID":"2021-027B","EPOCH":"2026-02-04T12:00:01.999296","MEAN_MOTION":15.30176161,"ECCENTRICITY":0.0001111,"INCLINATION":53.1589,"RA_OF_ASC_NODE":309.1153,"ARG_OF_PERICENTER":109.6255,"MEAN_ANOMALY":53.2694,"EPHEMERIS_TYPE":0,"CLASSIFICATION_TYPE":"U","NORAD_CAT_ID":48093,"ELEMENT_SET_NO":999,"REV_AT_EPOCH":566,"BSTAR":0.00051898,"MEAN_MOTION_DOT":0.00015032,"MEAN_MOTION_DDOT":0},{"OBJECT_NAME":"STARLINK-2412","OBJECT_ID":"2021-027C","EPOCH":"2026-02-04T12:00:01.999296","MEAN_MOTION":15.2932852,"ECCENTRICITY":0.0001438,"INCLINATION":53.1558,"RA_OF_ASC_NODE":319.3807,"ARG_OF_PERICENTER":88.2118,"MEAN_ANOMALY":83.1706,"EPHEMERIS_TYPE":0,"CLASSIFICATION_TYPE":"U","NORAD_CAT_ID":48094,"ELEMENT_SET_NO":999,"REV_AT_EPOCH":581,"BSTAR":-2.9056e-5,"MEAN_MOTION_DOT":-1.194e-5,"MEAN_MOTION_DDOT":0},{"OBJECT_NAME":"STARLINK-2414","OBJECT_ID":"2021-027D","EPOCH":"2026-02-04T12:00:01.999296","MEAN_MOTION":15.29376312,"ECCENTRICITY":0.0001258,"INCLINATION":53.1548,"RA_OF_ASC_NODE":319.4235,"ARG_OF_PERICENTER":98.4463,"MEAN_ANOMALY":9.2391,"EPHEMERIS_TYPE":0,"CLASSIFICATION_TYPE":"U","NORAD_CAT_ID":48095,"ELEMENT_SET_NO":999,"REV_AT_EPOCH":578,"BSTAR":-4.0343e-5,"MEAN_MOTION_DOT":-1.521e-5,"MEAN_MOTION_DDOT":0},{"OBJECT_NAME":"STARLINK-2417","OBJECT_ID":"2021-027E","EPOCH":"2026-02-04T12:00:01.999296","MEAN_MOTION":15.29200379,"ECCENTRICITY":0.0001533,"INCLINATION":53.1512,"RA_OF_ASC_NODE":319.7142,"ARG_OF_PERICENTER":95.118,"MEAN_ANOMALY":352.0399,"EPHEMERIS_TYPE":0,"CLASSIFICATION_TYPE":"U","NORAD_CAT_ID":48096,"ELEMENT_SET_NO":999,"REV_AT_EPOCH":578,"BSTAR":0.0024625,"MEAN_MOTION_DOT":0.00071042,"MEAN_MOTION_DDOT":0},{"OBJECT_NAME":"STARLINK-2418","OBJECT_ID":"2021-027F","EPOCH":"2026-02-03T03:52:52.506912","MEAN_MOTION":15.0639247,"ECCENTRICITY":0.00014579,"INCLINATION":53.0539,"RA_OF_ASC_NODE":306.6226,"ARG_OF_PERICENTER":77.2136,"MEAN_ANOMALY":282.9016,"EPHEMERIS_TYPE":0,"CLASSIFICATION_TYPE":"U","NORAD_CAT_ID":48097,"ELEMENT_SET_NO":999,"REV_AT_EPOCH":26749,"BSTAR":5.7865059e-5,"MEAN_MOTION_DOT":5.8e-6,"MEAN_MOTION_DDOT":0},{"OBJECT_NAME":"STARLINK-2421","OBJECT_ID":"2021-027G","EPOCH":"2026-02-04T04:23:14.874720","MEAN_MOTION":15.29388384,"ECCENTRICITY":0.00013109,"INCLINATION":53.1559,"RA_OF_ASC_NODE":310.5599,"ARG_OF_PERICENTER":94.5851,"MEAN_ANOMALY":265.5299,"EPHEMERIS_TYPE":0,"CLASSIFICATION_TYPE":"U","NORAD_CAT_ID":48098,"ELEMENT_SET_NO":999,"REV_AT_EPOCH":26752,"BSTAR":0.0004056091,"MEAN_MOTION_DOT":0.00011378,"MEAN_MOTION_DDOT":0},{"OBJECT_NAME":"STARLINK-2428","OBJECT_ID":"2021-027H","EPOCH":"2026-02-04T01:19:59.153664","MEAN_MOTION":15.06416142,"ECCENTRICITY":0.00012808,"INCLINATION":53.0533,"RA_OF_ASC_NODE":322.61,"ARG_OF_PERICENTER":87.8358,"MEAN_ANOMALY":272.2777,"EPHEMERIS_TYPE":0,"CLASSIFICATION_TYPE":"U","NORAD_CAT_ID":48099,"ELEMENT_SET_NO":999,"REV_AT_EPOCH":26734,"BSTAR":0.00091412164,"MEAN_MOTION_DOT":0.00013366,"MEAN_MOTION_DDOT":0},{"OBJECT_NAME":"STARLINK-2430","OBJECT_ID":"2021-027J","EPOCH":"2026-02-03T03:42:15.360480","MEAN_MOTION":15.06397637,"ECCENTRICITY":0.00014825,"INCLINATION":53.0545,"RA_OF_ASC_NODE":306.6525,"ARG_OF_PERICENTER":82.8681,"MEAN_ANOMALY":277.2477,"EPHEMERIS_TYPE":0,"CLASSIFICATION_TYPE":"U","NORAD_CAT_ID":48100,"ELEMENT_SET_NO":999,"REV_AT_EPOCH":26749,"BSTAR":0.00024614177,"MEAN_MOTION_DOT":3.386e-5,"MEAN_MOTION_DDOT":0},{"OBJECT_NAME":"STARLINK-2436","OBJECT_ID":"2021-027K","EPOCH":"2026-02-04T01:09:01.620288","MEAN_MOTION":15.29344487,"ECCENTRICITY":0.00016064,"INCLINATION":53.1562,"RA_OF_ASC_NODE":311.1643,"ARG_OF_PERICENTER":108.2816,"MEAN_ANOMALY":251.8359,"EPHEMERIS_TYPE":0,"CLASSIFICATION_TYPE":"U","NORAD_CAT_ID":48101,"ELEMENT_SET_NO":999,"REV_AT_EPOCH":26751,"BSTAR":2.4237542e-5,"MEAN_MOTION_DOT":3.43e-6,"MEAN_MOTION_DDOT":0},{"OBJECT_NAME":"STARLINK-2439","OBJECT_ID":"2021-027N","EPOCH":"2026-02-04T11:03:11.299680","MEAN_MOTION":15.06403011,"ECCENTRICITY":0.0001324,"INCLINATION":53.0539,"RA_OF_ASC_NODE":305.7867,"ARG_OF_PERICENTER":87.0173,"MEAN_ANOMALY":273.0967,"EPHEMERIS_TYPE":0,"CLASSIFICATION_TYPE":"U","NORAD_CAT_ID":48104,"ELEMENT_SET_NO":999,"REV_AT_EPOCH":26762,"BSTAR":0.00029999,"MEAN_MOTION_DOT":4.19e-5,"MEAN_MOTION_DDOT":0},{"OBJECT_NAME":"STARLINK-2440","OBJECT_ID":"2021-027P","EPOCH":"2026-02-04T07:14:16.239840","MEAN_MOTION":15.0641742,"ECCENTRICITY":0.0001276,"INCLINATION":53.052,"RA_OF_ASC_NODE":251.5002,"ARG_OF_PERICENTER":117.1304,"MEAN_ANOMALY":242.9815,"EPHEMERIS_TYPE":0,"CLASSIFICATION_TYPE":"U","NORAD_CAT_ID":48105,"ELEMENT_SET_NO":999,"REV_AT_EPOCH":26836,"BSTAR":-0.00028431,"MEAN_MOTION_DOT":-4.516e-5,"MEAN_MOTION_DDOT":0},{"OBJECT_NAME":"STARLINK-2442","OBJECT_ID":"2021-027Q","EPOCH":"2026-02-04T03:40:37.814880","MEAN_MOTION":15.06425628,"ECCENTRICITY":0.00011478,"INCLINATION":53.0565,"RA_OF_ASC_NODE":302.1796,"ARG_OF_PERICENTER":103.0774,"MEAN_ANOMALY":257.0343,"EPHEMERIS_TYPE":0,"CLASSIFICATION_TYPE":"U","NORAD_CAT_ID":48106,"ELEMENT_SET_NO":999,"REV_AT_EPOCH":26764,"BSTAR":0.00089569412,"MEAN_MOTION_DOT":0.00013094,"MEAN_MOTION_DDOT":0},{"OBJECT_NAME":"STARLINK-2443","OBJECT_ID":"2021-027R","EPOCH":"2026-02-04T04:01:52.093056","MEAN_MOTION":15.06414804,"ECCENTRICITY":0.00015673,"INCLINATION":53.0529,"RA_OF_ASC_NODE":302.1013,"ARG_OF_PERICENTER":91.3829,"MEAN_ANOMALY":268.734,"EPHEMERIS_TYPE":0,"CLASSIFICATION_TYPE":"U","NORAD_CAT_ID":48107,"ELEMENT_SET_NO":999,"REV_AT_EPOCH":26764,"BSTAR":-5.779382e-6,"MEAN_MOTION_DOT":-3.68e-6,"MEAN_MOTION_DDOT":0},{"OBJECT_NAME":"STARLINK-2448","OBJECT_ID":"2021-027V","EPOCH":"2026-02-04T12:00:01.999296","MEAN_MOTION":15.2919571,"ECCENTRICITY":0.0001591,"INCLINATION":53.1604,"RA_OF_ASC_NODE":309.0344,"ARG_OF_PERICENTER":96.7681,"MEAN_ANOMALY":285.5388,"EPHEMERIS_TYPE":0,"CLASSIFICATION_TYPE":"U","NORAD_CAT_ID":48111,"ELEMENT_SET_NO":999,"REV_AT_EPOCH":581,"BSTAR":0.0068473,"MEAN_MOTION_DOT":0.00201683,"MEAN_MOTION_DDOT":0},{"OBJECT_NAME":"STARLINK-2449","OBJECT_ID":"2021-027W","EPOCH":"2026-02-04T04:46:55.532640","MEAN_MOTION":15.3022671,"ECCENTRICITY":0.0001647,"INCLINATION":53.162,"RA_OF_ASC_NODE":323.3722,"ARG_OF_PERICENTER":95.8449,"MEAN_ANOMALY":264.274,"EPHEMERIS_TYPE":0,"CLASSIFICATION_TYPE":"U","NORAD_CAT_ID":48112,"ELEMENT_SET_NO":999,"REV_AT_EPOCH":26735,"BSTAR":0.00043144,"MEAN_MOTION_DOT":0.00012451,"MEAN_MOTION_DDOT":0}]
